STARLINK-5119           
1 53986U 22125Y   24044.26272833 -.00000229  00000+0  37228-5 0  9990
2 53986  53.2190 355.0409 0001526 105.5925 254.5235 15.08847529 75557
STARLINK-5112           
1 53987U 22125Z   24044.57836156  .00006899  00000+0  45103-3 0  9996
2 53987  53.2192   4.1414 0001369 101.5715 258.5431 15.08849004 75468
STARLINK-5113           
1 53988U 22125AA  24044.30600593 -.00001774  00000+0 -93359-4 0  9998
2 53988  53.2184   5.2809 0001415  97.2058 262.9095 15.08854370 75415
STARLINK-5115           
1 53989U 22125AB  24044.30111225  .00000297  00000+0  38134-4 0  9995
2 53989  53.2178   5.2508 0001393  97.7660 262.3490 15.07214052 75424
STARLINK-5075           
1 53990U 22125AC  24044.30233260 -.00000645  00000+0 -22418-4 0  9998
2 53990  53.2184   5.2560 0001543 124.6388 235.4750 15.08848099 75419
STARLINK-5118           
1 53991U 22125AD  24044.55716450 -.00000870  00000+0 -36557-4 0  9992
2 53991  53.2192 353.9736 0001259 100.5236 259.5898 15.08840410 75594
STARLINK-5108           
1 53992U 22125AE  24044.29496710  .00013680  00000+0  87559-3 0  9996
2 53992  53.2182   5.2113 0001530 107.1091 253.0068 15.08854785 75413
STARLINK-5121           
1 53993U 22125AF  24044.60268731 -.00001581  00000+0 -81268-4 0  9993
2 53993  53.2196 358.5912 0001952  86.6584 273.4631 15.08832534 75539
STARLINK-5125           
1 53994U 22125AG  24044.61511741 -.00000069  00000+0  13754-4 0  9991
2 53994  53.2173   3.6607 0001357  95.6291 264.4856 15.08839073 75475
STARLINK-5097           
1 53995U 22125AH  24044.15880434 -.00001546  00000+0 -79059-4 0  9991
2 53995  53.2190   5.7928 0001218  94.0736 266.0396 15.08839895 75397
STARLINK-5131           
1 53996U 22125AJ  24044.61143191  .00000971  00000+0  79078-4 0  9995
2 53996  53.2178   3.6369 0001466  95.8352 264.2807 15.08840822 75476
STARLINK-5130           
1 53997U 22125AK  24044.57928140  .00000805  00000+0  68701-4 0  9993
2 53997  53.2194 354.1670 0001311  93.4151 266.6992 15.08832781 75605
STARLINK-5128           
1 53998U 22125AL  24044.60406625  .00014398  00000+0  92113-3 0  9992
2 53998  53.2180   3.5950 0001671  77.1763 282.9416 15.08829583 75477
STARLINK-5079           
1 53999U 22125AM  24044.28760332 -.00000816  00000+0 -33156-4 0  9990
2 53999  53.2194   5.1693 0001799  94.8169 265.3029 15.08843043 75429
STARLINK-5088           
1 54000U 22125AN  24044.57559659  .00000152  00000+0  27632-4 0  9997
2 54000  53.2202 354.1440 0001590 107.3465 252.7701 15.08838718 75608
STARLINK-5105           
1 54001U 22125AP  24044.58334491  .00005280  00000+0  36529-3 0  9995
2 54001  53.2171   3.7348 0001615  88.7798 134.1732 15.07197365  5826
STARLINK-5109           
1 54002U 22125AQ  24044.26641118 -.00000256  00000+0  20173-5 0  9997
2 54002  53.2177 355.0814 0001371 109.9755 250.1385 15.08852340 75565
STARLINK-5114           
1 54003U 22125AR  24044.60775483 -.00000419  00000+0 -82285-5 0  9993
2 54003  53.2190   3.6156 0001572  93.6705 266.4467 15.08835912 75470
STARLINK-5129           
1 54004U 22125AS  24044.59669489  .00002129  00000+0  15185-3 0  9991
2 54004  53.2190   3.5485 0001538  98.3069 261.8098 15.08832337 75479
STARLINK-5135           
1 54005U 22125AT  24044.60037962  .00000245  00000+0  33517-4 0  9996
2 54005  53.2190   3.5677 0001720  89.9202 270.1987 15.08827197 75479
STARLINK-5096           
1 54006U 22125AU  24044.58563967 -.00000519  00000+0 -14513-4 0  9994
2 54006  53.2188   3.4875 0001403  77.1532 282.9616 15.08844071 75468
STARLINK-5132           
1 54007U 22125AV  24044.59301188  .00000717  00000+0  63110-4 0  9996
2 54007  53.2188   3.5261 0001388  94.9305 265.1845 15.08839332 75478
STARLINK-5145           
1 54008U 22125AW  24044.59025128 -.00000628  00000+0 -21363-4 0  9991
2 54008  53.2205 353.5324 0001350  96.9742 263.1403 15.08834643 75617
STARLINK-5099           
1 54009U 22125AX  24044.58932579 -.00001249  00000+0 -60414-4 0  9998
2 54009  53.2187   3.5061 0001386  81.2884 278.8265 15.08842128 75470
STARLINK-5127           
1 54010U 22125AY  24044.58288180  .00000317  00000+0  38026-4 0  9999
2 54010  53.2197 353.5026 0001405  83.8671 276.2482 15.08840708 75617
STARLINK-5124           
1 54011U 22125AZ  24044.57191120  .00000516  00000+0  50504-4 0  9992
2 54011  53.2198 354.1257 0001492  95.8312 264.2850 15.08841134 75602
STARLINK-5126           
1 54012U 22125BA  24044.54611132 -.00000691  00000+0 -25357-4 0  9994
2 54012  53.2184 353.9614 0001194 101.2614 258.8512 15.08848123 75607
STARLINK-5098           
1 54013U 22125BB  24044.55347636  .00000699  00000+0  61970-4 0  9998
2 54013  53.2172 354.0102 0001151  68.5286 291.5828 15.08846043 75605
STARLINK-5116           
1 54014U 22125BC  24044.54979945 -.00000418  00000+0 -81812-5 0  9991
2 54014  53.2177 353.9883 0001124  94.1029 266.0092 15.08840839 75602
STARLINK-5055           
1 54015U 22125BD  24044.27621704 -.00000915  00000+0 -41522-4 0  9994
2 54015  53.2189 355.1211 0001373  87.0105 273.1044 15.07209550 75566
STARLINK-5195           
1 54051U 22136A   24044.50752123 -.00001652  00000+0 -85698-4 0  9993
2 54051  53.2175 134.5105 0001383  99.9042 260.2106 15.08839134 72836
STARLINK-5189           
1 54052U 22136B   24044.45963175 -.00000887  00000+0 -37652-4 0  9995
2 54052  53.2166  94.2923 0001512  95.5436 264.5729 15.08837338 73394
STARLINK-5176           
1 54053U 22136C   24044.57006114  .00000191  00000+0  30058-4 0  9999
2 54053  53.2174 134.1931 0001573  79.9767 280.1402 15.08853063 72841
STARLINK-5163           
1 54054U 22136D   24044.56271514 -.00000904  00000+0 -38725-4 0  9990
2 54054  53.2174 134.1457 0001580  83.7071 276.4101 15.08832166 72849
STARLINK-5158           
1 54055U 22136E   24044.56637546  .00004765  00000+0  31712-3 0  9997
2 54055  53.2148 134.1698 0001697  84.9387 275.1799 15.08855920 72842
STARLINK-5226           
1 54056U 22136F   24044.55998453 -.00001383  00000+0 -68838-4 0  9999
2 54056  53.2176 134.1298 0001717  74.4328 285.6854 15.08837426 72841
STARLINK-5167           
1 54058U 22136H   24044.55165409 -.00001355  00000+0 -67080-4 0  9995
2 54058  53.2158 134.0765 0001233 104.4222 255.6907 15.08838117 72845
STARLINK-5173           
1 54059U 22136J   24044.55533980 -.00000976  00000+0 -43237-4 0  9995
2 54059  53.2176 134.0992 0001575  81.5342 278.5829 15.08837539 72849
STARLINK-5169           
1 54060U 22136K   24044.44764721 -.00000526  00000+0 -14982-4 0  9990
2 54060  53.2162 104.1923 0001512  87.5841 272.5325 15.08838221 73259
STARLINK-5209           
1 54061U 22136L   24044.44626523 -.00000969  00000+0 -42783-4 0  9999
2 54061  53.2181  99.1431 0001612  98.9786 261.1389 15.08834382 73329
STARLINK-5170           
1 54062U 22136M   24044.48172415 -.00002216  00000+0 -12116-3 0  9993
2 54062  53.2164 134.3500 0001911 119.4097 240.7086 15.08833547 72830
STARLINK-5225           
1 54063U 22136N   24044.54427675 -.00001689  00000+0 -88039-4 0  9993
2 54063  53.2159 134.0331 0001364  82.4464 277.6683 15.08834725 72845
STARLINK-5172           
1 54064U 22136P   24044.49509283 -.00000521  00000+0 -14639-4 0  9993
2 54064  53.2182  89.5031 0001686  99.6891 260.4292 15.08840159 73467
STARLINK-5187           
1 54065U 22136Q   24044.47067260 -.00001698  00000+0 -88610-4 0  9992
2 54065  53.2160 134.2785 0001466 100.1591 259.9566 15.08836877 72838
STARLINK-5151           
1 54066U 22136R   24044.54059463 -.00002969  00000+0 -16857-3 0  9992
2 54066  53.2156 134.0093 0001311  91.8770 268.2372 15.08836882 72843
STARLINK-5174           
1 54067U 22136S   24044.52953948 -.00001078  00000+0 -49657-4 0  9997
2 54067  53.2163 133.9431 0001557  95.9913 264.1256 15.08835178 72845
STARLINK-5222           
1 54068U 22136T   24044.53322524 -.00000931  00000+0 -40432-4 0  9998
2 54068  53.2154 133.9623 0001363  74.5332 285.5810 15.08839967 72845
STARLINK-5223           
1 54069U 22136U   24044.51848431 -.00002988  00000+0 -16970-3 0  9990
2 54069  53.2152 133.8693 0001409  98.0988 262.0164 15.08839796 72841
STARLINK-5181           
1 54070U 22136V   24044.52217184 -.00002999  00000+0 -17036-3 0  9994
2 54070  53.2173 133.8932 0001432  86.8074 273.3082 15.08845123 72844
STARLINK-5168           
1 54071U 22136W   24044.53788058 -.00001064  00000+0 -48771-4 0  9992
2 54071  53.2171 133.9901 0001470  89.0896 271.0265 15.08826560 72841
STARLINK-5144           
1 54072U 22136X   24044.52585942 -.00001538  00000+0 -78543-4 0  9995
2 54072  53.2170 133.9193 0001510  96.9348 263.1816 15.08835869 72844
STARLINK-5146           
1 54073U 22136Y   24044.51710720 -.00001303  00000+0 -63807-4 0  9996
2 54073  53.2168 128.8849 0001574  96.9562 263.1610 15.08836586 72918
STARLINK-5192           
1 54074U 22136Z   24044.51479861 -.00001509  00000+0 -76719-4 0  9999
2 54074  53.2169 133.8449 0001499  95.4324 264.6839 15.08841261 72845
STARLINK-5212           
1 54075U 22136AA  24044.51342340  .00000663  00000+0  59769-4 0  9995
2 54075  53.2160 128.8534 0001477  92.9395 267.1766 15.08832486 72916
STARLINK-5201           
1 54076U 22136AB  24044.51111618  .00001930  00000+0  13934-3 0  9999
2 54076  53.2149 133.8283 0001300  82.2116 277.9023 15.08838793 72843
STARLINK-5171           
1 54077U 22136AC  24044.45041016 -.00001913  00000+0 -10212-3 0  9996
2 54077  53.2164 114.2010 0001474  88.8631 271.2530 15.08836047 73119
STARLINK-5138           
1 54078U 22136AD  24044.47620408 -.00001033  00000+0 -46805-4 0  9998
2 54078  53.2172 114.3585 0001480 103.0050 257.1108 15.08838556 73110
STARLINK-5175           
1 54079U 22136AE  24044.50475402 -.00001067  00000+0 -48944-4 0  9998
2 54079  53.2172 124.5025 0001529  96.2214 263.8952 15.08840016 72970
STARLINK-5160           
1 54080U 22136AF  24044.49876915 -.00003178  00000+0 -18168-3 0  9991
2 54080  53.2169 129.4684 0001480  94.9670 265.1491 15.08834141 72908
